# From MPEC 2022-K19
P/2016 R4 (Gibbs),e,10.8751,168.2613,174.1501,5.333549,0.0800165,0.47589412,206.8961,08/23.0/2023,2000,g 12.5,4.0
# From MPC105543
P/2016 S1 (PANSTARRS),e,94.7379,227.6725,273.2319,8.273733,0.0414144,0.71075658,97.3007,08/23.0/2023,2000,g 12.0,4.0
# From MPC106345
P/2016 WM48 (Lemmon),e,117.6153,59.9459,36.1612,8.171401,0.0421948,0.78353173,100.0438,08/23.0/2023,2000,g 15.0,4.0
# From MPEC 2021-P47
C/2016 X1 (Lemmon),e,26.4632,256.3222,224.4971,1516,0.0000167,0.99501564,0.0000,04/28.2542/2019,2000,g  6.0,4.0
# From MPEC 2022-OB6
C/2017 B3 (LINEAR),e,54.1652,2.1806,284.8355,26794,0.0000002,0.99985326,0.0000,01/31.8226/2019,2000,g  6.0,4.0
# From MPC103847
P/2017 B4 (PANSTARRS),e,20.0584,121.4578,11.0197,4.410520,0.1064068,0.36495152,359.9130,01/05.0/2017,2000,g 14.5,4.0
# From MPEC 2022-OB6
P/2017 D1 (Fuls),e,20.7706,82.1955,7.9604,4.826719,0.0929450,0.43730288,243.1584,08/23.0/2023,2000,g 14.0,4.0
# From MPEC 2022-OB6
P/2017 D4 (PANSTARRS),e,10.5567,264.9532,212.0925,7.545814,0.0475494,0.62946106,120.8636,08/23.0/2023,2000,g 13.0,4.0
# From MPC104794
P/2017 G1 (PANSTARRS),e,4.7871,249.6972,224.3088,7.272871,0.0502511,0.65423128,134.3021,08/23.0/2023,2000,g 13.5,4.0
# From MPC108595
P/2017 G2 (PANSTARRS),e,47.9651,79.8695,105.3441,8.046771,0.0431789,0.64768770,97.8488,08/23.0/2023,2000,g 13.0,4.0
# From MPEC 2023-Q33
C/2017 K2 (PANSTARRS),h,12/19.6859/2022,87.5642,88.2351,236.2059,1.000691,1.797032,2000,1.5,4.0
# From MPEC 2021-N06
P/2017 K3 (Gasparovic),e,4.2736,354.3043,253.3725,5.585048,0.0746730,0.57892043,170.2336,08/23.0/2023,2000,g 14.5,4.0
# From MPEC 2021-P47
C/2017 K5 (PANSTARRS),h,03/27.1857/2020,82.2660,102.4045,172.0623,1.004840,7.684226,2000,5.0,4.0
# From MPEC 2022-OB6
C/2017 M4 (ATLAS),h,01/17.9553/2019,105.6307,65.9987,167.5720,1.001038,3.248643,2000,6.0,4.0
# From MPC118841
C/2017 M5 (TOTAS),h,06/03.5032/2018,15.8586,216.2875,92.8906,1.004483,6.009540,2000,6.5,4.0
# From MPC114599
P/2017 P1 (PANSTARRS),e,7.6884,221.3530,122.8422,7.917440,0.0442412,0.31047722,83.4779,08/23.0/2023,2000,g 10.0,4.0
# From MPC114599
C/2017 S3 (PANSTARRS),h,08/17.0143/2018,99.1516,171.2027,255.7507,1.000096,0.203662,2000,12.9,4.0
# From MPEC 2022-OB6
P/2017 S8 (PANSTARRS),e,29.8482,191.5191,254.8722,2.778611,0.2127955,0.39091817,72.7221,08/23.0/2023,2000,g 16.0,4.0
# From MPEC 2022-YN2
C/2017 T2 (PANSTARRS),e,57.2803,64.4334,92.8795,1499,0.0000170,0.99892512,0.0000,05/04.9301/2020,2000,g  5.0,4.0
# From MPC114600
C/2017 T3 (ATLAS),e,88.2937,230.2608,246.7761,1321,0.0000205,0.99937810,0.0000,07/19.6646/2018,2000,g 10.0,4.0
# From MPC115882
P/2017 TW13 (Lemmon),e,44.8527,322.2195,119.9271,7.134830,0.0517164,0.71054437,97.6204,08/23.0/2023,2000,g 15.0,2.0
# From MPEC 2022-K19
P/2017 U3 (PANSTARRS),e,15.9178,165.0991,296.2124,4.923243,0.0902251,0.10000227,143.8033,08/23.0/2023,2000,g 11.0,4.0
# From MPEC 2023-CD7
C/2017 U4 (PANSTARRS),e,158.1998,245.9006,158.9885,6309,0.0000020,0.99877507,0.0000,09/21.2285/2018,2000,g  7.0,4.0
# From MPEC 2023-A50
C/2017 U7 (PANSTARRS),h,09/15.6823/2019,142.6227,276.2826,326.4537,1.002163,6.428460,2000,8.3,2.0
# From MPC114601
P/2017 W3 (Gibbs),e,18.1707,210.1796,327.7937,7.827660,0.0450045,0.50631761,90.1811,08/23.0/2023,2000,g 10.5,4.0
# From MPEC 2021-R75
C/2017 X1 (PANSTARRS),e,31.3474,251.1696,283.0717,30.95654,0.0057224,0.84947741,10.8505,08/23.0/2023,2000,g 10.0,4.0
# From MPEC 2022-QD9
C/2017 Y2 (PANSTARRS),h,11/05.1382/2020,128.4437,66.0232,147.9293,1.001561,4.631472,2000,15.0,4.0
# From MPC111770
P/2017 Y3 (Leonard),e,27.5757,153.8822,67.5379,9.813511,0.0320603,0.86933465,64.8359,08/23.0/2023,2000,g 16.5,4.0
# From MPEC 2021-P47
C/2018 A3 (ATLAS),e,139.5448,194.2985,86.3647,353.5646,0.0001483,0.99071988,0.0000,01/10.2396/2019,2000,g  8.5,4.0
# From MPEC 2023-J29
C/2018 A4 (PANSTARRS),e,3.1517,97.5643,355.9571,12.18737,0.0231653,0.80411661,44.4981,08/23.0/2023,2000,g 14.0,4.0
# From MPC109147
P/2018 A5 (PANSTARRS),e,23.6199,87.7867,359.4898,5.627124,0.0738370,0.52379875,159.3254,08/23.0/2023,2000,g 15.0,4.0
# From MPEC 2022-ST7
C/2018 A6 (Gibbs),e,77.0755,340.3916,264.3343,15.02953,0.0169155,0.79916399,25.4402,08/23.0/2023,2000,g  9.0,4.0
# From MPC114601
P/2018 C1 (Lemmon-Read),e,5.1090,270.3087,235.7013,5.651847,0.0733531,0.53208229,147.2116,08/23.0/2023,2000,g 13.5,4.0
# From MPC114601
C/2018 C2 (Lemmon),e,34.4629,91.3038,133.9400,7352,0.0000016,0.99973346,0.0000,05/30.8342/2018,2000,g 13.0,4.0
# From MPEC 2022-M88
C/2018 DO4 (Lemmon),e,160.4440,251.4305,176.3236,25.33623,0.0077284,0.90465575,11.3407,08/23.0/2023,2000,g 11.0,4.0
# From MPC114602
C/2018 E1 (ATLAS),e,72.4898,146.7976,299.2746,53.89196,0.0024913,0.95009007,4.8642,08/23.0/2023,2000,g 10.5,4.0
# From MPC114602
C/2018 EN4 (NEOWISE),e,81.9806,136.1320,35.0037,17.88838,0.0130271,0.91833960,24.8598,08/23.0/2023,2000,g 15.0,4.0
# From MPEC 2023-CD7
C/2018 EF9 (Lemmon),e,84.6495,172.5764,72.6404,435.8673,0.0001083,0.99641299,0.0000,05/20.5488/2018,2000,g 18.0,2.0
# From MPEC 2021-R75
C/2018 F1 (Grauer),e,46.0897,177.2797,71.5637,232.6820,0.0002777,0.98711863,0.0000,12/11.3216/2018,2000,g 11.5,4.0
# From MPEC 2023-A50
C/2018 F4 (PANSTARRS),e,78.0830,26.5152,263.2123,3805,0.0000042,0.99909466,0.0000,12/02.5770/2019,2000,g 11.0,6.0
# From MPEC 2021-Y10
C/2018 F4-A,e,78.0831,26.5154,263.2091,3595,0.0000046,0.99904170,0.0000,12/02.5651/2019,2000,g 11.0,6.0
# From MPEC 2023-D41
C/2018 F4-B,e,78.0841,26.5149,263.1949,3962,0.0000040,0.99913049,0.0000,12/02.5019/2019,2000,g 11.0,6.0
# From MPC114602
P/2018 H2 (PANSTARRS),e,7.4490,67.6149,120.0797,4.388372,0.1072134,0.54177802,220.1221,08/23.0/2023,2000,g 16.6,2.0
# From MPEC 2021-R75
C/2018 KJ3 (Lemmon),e,136.6560,91.6694,217.6413,900.9560,0.0000364,0.99597706,0.0000,09/09.9295/2019,2000,g 12.2,2.0
# From MPC114602
P/2018 L1 (PANSTARRS),e,10.5767,268.6015,18.0290,3.654684,0.1410683,0.48152494,246.3202,08/23.0/2023,2000,g 15.0,4.0
# From MPEC 2021-P47
C/2018 L2 (ATLAS),e,67.2251,242.9914,56.3402,252.7753,0.0002452,0.99320476,0.0000,12/01.7233/2018,2000,g 10.0,4.0
# From MPC114603
P/2018 L4 (PANSTARRS),e,26.6104,145.1918,140.6009,4.946388,0.0895925,0.65869549,165.7514,08/23.0/2023,2000,g 17.5,4.0
# From MPC119996
P/2018 L5 (Leonard),e,2.2092,219.0316,93.9673,3.629105,0.1425623,0.36403916,275.9099,08/23.0/2023,2000,g 14.5,4.0
# From MPC117070
C/2018 M1 (Catalina),e,37.2564,339.4310,14.2690,21.53176,0.0098647,0.93927108,18.4384,08/23.0/2023,2000,g 15.5,4.0
# From MPEC 2022-M21
C/2018 N1 (NEOWISE),e,159.3923,292.5819,354.7465,519.1418,0.0000833,0.99748291,0.0000,08/03.3420/2018,2000,g 15.5,4.0
# From MPEC 2022-YN2
C/2018 N2 (ASASSN),h,11/11.5694/2019,77.5561,25.2020,24.5194,1.001270,3.129460,2000,6.0,4.0
# From MPC114603
C/2018 O1 (ATLAS),e,153.9842,87.8319,162.7179,28.08874,0.0066207,0.94462811,12.0235,08/23.0/2023,2000,g 17.0,4.0
# From MPEC 2023-J29
P/2018 P3 (PANSTARRS),e,8.9148,59.1604,306.0084,3.003739,0.1893263,0.41714307,336.1946,08/23.0/2023,2000,g 14.5,4.0
# From MPC114603
P/2018 P4 (PANSTARRS),e,23.1042,353.0713,8.4877,6.687911,0.0569860,0.45035309,99.5998,08/23.0/2023,2000,g 12.0,4.0
# From MPEC 2021-P47
C/2018 P5 (PANSTARRS),e,7.2462,216.1877,132.0344,12.85078,0.0213949,0.64274906,35.0224,08/23.0/2023,2000,g 11.0,4.0
# From MPC118841
C/2018 R3 (Lemmon),e,69.7026,324.5396,112.7415,1599,0.0000154,0.99919815,0.0000,06/07.9908/2019,2000,g  9.5,4.0
# From MPC114603
C/2018 R5 (Lemmon),e,103.7407,171.1331,178.2523,22.93551,0.0089731,0.84150738,15.1247,08/23.0/2023,2000,g 11.5,4.0
# From MPEC 2022-QC6
C/2018 S2 (TESS),e,64.1369,85.0885,290.8539,14.36454,0.0181037,0.61870467,31.6860,08/23.0/2023,2000,g  7.5,4.0
# From MPEC 2023-N01
C/2018 U1 (Lemmon),h,11/03.0537/2021,108.3216,75.5002,180.4647,1.001407,4.992320,2000,5.0,4.0
# From MPC114604
C/2018 V1 (Machholz-Fujikawa-Iwamoto),h,12/02.8981/2018,144.1217,129.1865,89.2343,1.000381,0.391357,2000,12.0,4.0
# From MPC115884
C/2018 V2 (ATLAS),e,159.1673,357.0941,319.0811,25.10694,0.0078345,0.90089438,13.5671,08/23.0/2023,2000,g 15.0,4.0
# From MPEC 2023-CD7
P/2018 VN2 (Leonard),e,18.2595,226.4421,138.9047,4.061852,0.1203976,0.47864920,228.9875,08/23.0/2023,2000,g 15.0,4.0
# From MPEC 2022-VC5
A/2018 V3,e,164.9535,308.7281,3.6165,128.2827,0.0006783,0.98956125,0.0000,09/09.5390/2019,2000,g 15.7,2.0
# From MPEC 2022-M21
C/2018 V4 (Africano),e,69.0393,78.2547,359.9754,203.8032,0.0003388,0.98431833,0.0000,03/01.6874/2019,2000,g 12.5,4.0
# From MPEC 2021-P47
P/2018 V5 (Trujillo-Sheppard),e,10.5872,171.2834,260.7034,8.964861,0.0367188,0.47579442,65.4896,08/23.0/2023,2000,g 12.5,4.0
# From MPEC 2021-P47
C/2018 W1 (Catalina),e,83.3990,233.6781,251.1913,21.69656,0.0097525,0.93744263,15.2505,08/23.0/2023,2000,g 15.5,2.0
# From MPEC 2021-P47
C/2018 W2 (Africano),h,09/05.2995/2019,116.6181,181.8343,158.1165,1.000688,1.462945,2000,9.5,4.0
# From MPEC 2023-M14
A/2018 W3,e,104.8285,251.6793,313.9586,712.9046,0.0000518,0.99398249,0.0000,04/13.0737/2021,2000,g 10.7,2.0
# From MPC119996
C/2018 X2 (Fitzsimmons),e,23.0768,340.7822,161.9374,139.0783,0.0006009,0.98477024,0.0000,07/08.4356/2019,2000,g 12.0,4.0
# From MPC114604
C/2018 X3 (PANSTARRS),e,43.4230,78.8068,359.7686,12.38089,0.0226244,0.78267185,38.3597,08/23.0/2023,2000,g 14.5,4.0
# From MPEC 2023-HD1
C/2018 Y1 (Iwamoto),e,160.4218,147.4598,357.8895,128.6602,0.0006754,0.99001585,0.0000,02/05.3955/2019,2000,g  9.0,4.0
# From MPC114605
P/2018 Y2 (Africano),e,11.6863,297.1831,162.2528,7.453053,0.0484398,0.47950050,82.0424,08/23.0/2023,2000,g 11.5,4.0
# From MPC114605
P/2019 A1 (PANSTARRS),e,13.7559,312.2467,150.7162,5.115305,0.0851916,0.56945316,151.3349,08/23.0/2023,2000,g 16.0,4.0
# From MPEC 2021-P47
P/2019 A2 (ATLAS),e,14.8626,139.4323,323.8488,5.712750,0.0721832,0.38246448,125.3057,08/23.0/2023,2000,g 10.5,4.0
# From MPEC 2022-M21
P/2019 A3 (PANSTARRS),e,15.3751,31.2940,325.6940,3.143808,0.1768153,0.26608280,325.9430,08/23.0/2023,2000,g 16.0,4.0
# From MPEC 2022-L66
